2025-140A               
1 64691U 25140A   25204.21155486  .00000838  00000+0  13906-3 0  9993
2 64691  95.9828  46.0914 0012070 217.4869 142.5503 14.71669948  3660
ELECTRON KICK STAGE R/B 
1 64692U 25140B   25204.20493787  .00001483  00000+0  24025-3 0  9993
2 64692  95.9830  46.0987 0013269 211.1741 148.8686 14.72073691  3661
GOSAT-GW (IBUKI GW)     
1 64694U 25141A   25204.14808185  .00000788  00000+0  14714-3 0  9992
2 64694  98.0258 142.4071 0001505  84.3489 275.7887 14.67573381  3584
H-2A R/B                
1 64695U 25141B   25203.86560476  .00001343  00000+0  13868-3 0  9996
2 64695  98.0471 142.9261 0094537 185.6963 174.3186 14.88730256  3582
STARLINK-34497          
1 64696U 25142A   25204.25002315  .00057988  00000+0  13184-2 0  9991
2 64696  69.9993 181.9984 0003235 276.2735 213.6210 15.42694590  5042
STARLINK-34584          
1 64697U 25142B   25204.53136282  .00037360  00000+0  60634-3 0  9999
2 64697  69.9992 181.1161 0003274 264.3929  95.6884 15.52555834  4937
STARLINK-34535          
1 64698U 25142C   25204.53102023  .00058392  00000+0  94396-3 0  9996
2 64698  69.9995 181.1138 0003517 270.0904  89.9880 15.52546287  4880
STARLINK-34600          
1 64699U 25142D   25204.58336806 -.01441645  00000+0 -33342-1 0  9992
2 64699  69.9992 180.9969 0002860 279.3776 348.1681 15.45171978  4934
STARLINK-34560          
1 64700U 25142E   25204.25002315  .00054409  00000+0  12387-2 0  9996
2 64700  69.9997 181.9465 0003255 274.2770 260.6951 15.42672783  4846
STARLINK-34576          
1 64701U 25142F   25204.46556144  .00068094  00000+0  10989-2 0  9995
2 64701  69.9995 181.2858 0003302 268.1323  91.9485 15.52549405  4878
STARLINK-34322          
1 64702U 25142G   25204.52965142  .00050506  00000+0  81815-3 0  9991
2 64702  69.9994 181.1089 0003241 274.9105  85.1712 15.52529937  5099
STARLINK-34470          
1 64703U 25142H   25204.58336806 -.01647374  00000+0 -33798-1 0  9990
2 64703  69.9993 180.9637 0003403 269.1286  26.6864 15.49012896  4893
STARLINK-34405          
1 64704U 25142J   25204.25002315  .00058651  00000+0  13342-2 0  9995
2 64704  69.9994 181.9730 0003157 276.3544 235.6040 15.42675087  4880
STARLINK-34406          
1 64705U 25142K   25204.25002315  .00067291  00000+0  15296-2 0  9996
2 64705  69.9997 181.9207 0003767 277.7081 279.2839 15.42652448  5002
STARLINK-34559          
1 64706U 25142L   25204.58336806 -.01653341  00000+0 -37552-1 0  9996
2 64706  69.9993 180.9739 0003169 270.9376  16.0220 15.46116504  4941
STARLINK-34316          
1 64707U 25142M   25204.52827931 -.00265475  00000+0 -46995-2 0  9993
2 64707  69.9995 181.1031 0003599 277.2738  82.8039 15.51043290  5094
STARLINK-34563          
1 64708U 25142N   25204.52758720  .00081066  00000+0  13052-2 0  9991
2 64708  69.9994 181.1005 0003285 269.1157  90.9653 15.52557808  4774
STARLINK-34499          
1 64709U 25142P   25204.52724835  .00054655  00000+0  88434-3 0  9993
2 64709  69.9994 181.0994 0003370 269.1575  90.9225 15.52540075  4773
STARLINK-34447          
1 64710U 25142Q   25204.46247203  .00049372  00000+0  79889-3 0  9991
2 64710  69.9993 181.2745 0003456 266.7208  93.3583 15.52566577  5085
STARLINK-34312          
1 64711U 25142R   25204.52656009  .00033072  00000+0  53743-3 0  9998
2 64711  69.9993 181.0966 0003505 269.3236  90.7550 15.52550907  5090
STARLINK-34515          
1 64712U 25142S   25204.52621722  .00038201  00000+0  61985-3 0  9999
2 64712  69.9993 181.0953 0003319 269.0490  91.0316 15.52556092  4778
STARLINK-34583          
1 64713U 25142T   25204.52589663  .00068542  00000+0  11062-2 0  9998
2 64713  69.9994 181.0936 0003576 274.6696  85.4083 15.52544858  4771
STARLINK-34574          
1 64714U 25142U   25204.46109913  .00048634  00000+0  78701-3 0  9992
2 64714  69.9993 181.2690 0003664 266.3246  93.7521 15.52567749  4927
STARLINK-34533          
1 64715U 25142V   25204.25002315  .00055299  00000+0  12585-2 0  9990
2 64715  69.9997 181.9319 0003482 272.9178 273.0379 15.42678477  4825
STARLINK-34548          
1 64716U 25142W   25204.25002315  .00056713  00000+0  12907-2 0  9991
2 64716  69.9997 181.9069 0003170 271.6030 296.3690 15.42671474  4841
STARLINK-34568          
1 64717U 25142X   25204.58336806 -.00007792  00000+0 -17481-3 0  9991
2 64717  69.9992 180.9798 0003728 272.2203   9.5318 15.42691529  4948
STARLINK-34546          
1 64718U 25142Y   25204.58336806 -.01969012  00000+0 -46233-1 0  9990
2 64718  69.9988 180.9563 0003898 269.6112  31.6606 15.45185260  5109
STARLINK-34577          
1 64719U 25142Z   25204.58336806 -.01613712  00000+0 -33000-1 0  9992
2 64719  69.9996 180.9237 0003425 271.1571  57.3946 15.49039380  4948
STARLINK-34572          
1 64720U 25142AA  25204.58336806 -.01648695  00000+0 -36259-1 0  9991
2 64720  69.9996 180.9375 0003480 271.6591  45.7432 15.47032582  5106
STARLINK-34558          
1 64721U 25142AB  25204.52312988  .00077442  00000+0  12475-2 0  9999
2 64721  69.9994 181.0826 0003479 268.1323  91.9465 15.52558296  4884
MTG-S1                  
1 64723U 25143A   25204.17267074 -.00000039  00000+0  00000+0 0  9995
2 64723   0.9908 303.8463 0000327  14.0468  41.9129  1.00270922   203
STARLINK-34393          
1 64724U 25144A   25204.58336806 -.01624906  00000+0 -26777-1 0  9990
2 64724  53.1602 167.8190 0001388  72.3767  86.8565 15.54683942  4599
STARLINK-34562          
1 64725U 25144B   25204.58336806 -.01631225  00000+0 -26889-1 0  9997
2 64725  53.1599 167.8144 0001214  65.5769  95.5695 15.54689168  4573
STARLINK-34557          
1 64726U 25144C   25204.58336806 -.01631819  00000+0 -26901-1 0  9992
2 64726  53.1602 167.8106 0001228  64.4823  98.5834 15.54687930  4596
STARLINK-34242          
1 64727U 25144D   25204.58336806 -.01631016  00000+0 -26886-1 0  9994
2 64727  53.1602 167.8066 0001267  65.4053  99.5765 15.54687891  4591
STARLINK-34239          
1 64728U 25144E   25204.48894935  .02220374  00000+0  25591-1 0  9998
2 64728  53.1595 168.2528 0005262 356.3466   3.7508 15.58127550  4586
STARLINK-34588          
1 64729U 25144F   25204.58336806 -.01627444  00000+0 -26820-1 0  9994
2 64729  53.1600 167.7989 0001358  68.8660  99.9470 15.54687691  4591
STARLINK-34606          
1 64730U 25144G   25204.58336806 -.01631568  00000+0 -26894-1 0  9999
2 64730  53.1602 167.7943 0001309  70.3139 100.4164 15.54689659  4594
STARLINK-34552          
1 64731U 25144H   25204.58336806 -.01629892  00000+0 -26866-1 0  9996
2 64731  53.1602 167.7903 0001279  70.5633 102.0868 15.54687190  4595
STARLINK-34596          
1 64732U 25144J   25204.58336806 -.01629693  00000+0 -26861-1 0  9991
2 64732  53.1598 167.7866 0001342  70.3214 104.2435 15.54688014  4592
STARLINK-34556          
1 64733U 25144K   25204.58336806 -.01628347  00000+0 -26837-1 0  9990
2 64733  53.1598 167.7828 0001344  72.8444 103.6379 15.54687332  4597
STARLINK-34591          
1 64734U 25144L   25204.58336806 -.01633136  00000+0 -26922-1 0  9998
2 64734  53.1599 167.7785 0001245  65.6272 112.7695 15.54690918  4574
STARLINK-34587          
1 64735U 25144M   25204.58336806 -.01629750  00000+0 -26862-1 0  9999
2 64735  53.1601 167.7744 0001303  70.0050 110.3099 15.54688392  4534
STARLINK-34130          
1 64736U 25144N   25204.58336806 -.01629888  00000+0 -26863-1 0  9993
2 64736  53.1600 167.7701 0001280  68.8271 113.4020 15.54690121  4598
STARLINK-34619          
1 64737U 25144P   25204.58336806 -.01632732  00000+0 -26913-1 0  9992
2 64737  53.1599 167.7661 0001315  68.7234 115.4218 15.54691932  4590
STARLINK-34597          
1 64738U 25144Q   25204.58336806 -.01631450  00000+0 -26893-1 0  9996
2 64738  53.1600 167.7623 0001241  67.5199 118.5459 15.54689063  4578
STARLINK-34471          
1 64739U 25144R   25204.58336806 -.01629639  00000+0 -26861-1 0  9998
2 64739  53.1598 167.7581 0001272  69.6533 118.3303 15.54687610  4535
STARLINK-34208          
1 64740U 25144S   25204.58336806 -.01630618  00000+0 -26877-1 0  9996
2 64740  53.1598 167.7543 0001255  66.1115 123.7859 15.54689698  4594
STARLINK-34205          
1 64741U 25144T   25204.58336806 -.01631301  00000+0 -26888-1 0  9999
2 64741  53.1598 167.7503 0001439  75.2550 116.5604 15.54689621  4593
STARLINK-34607          
1 64742U 25144U   25204.58336806 -.01628813  00000+0 -26844-1 0  9996
2 64742  53.1597 167.7458 0001398  71.6036 122.1276 15.54688407  4572
STARLINK-34236          
1 64743U 25144V   25204.58336806 -.01631325  00000+0 -26889-1 0  9998
2 64743  53.1598 167.7422 0001338  71.4626 124.1854 15.54689935  4595
STARLINK-34185          
1 64744U 25144W   25204.58336806 -.01631237  00000+0 -26888-1 0  9990
2 64744  53.1595 167.7380 0001305  72.3782 125.1872 15.54689607  4590
STARLINK-34581          
1 64745U 25144X   25204.58336806 -.01631666  00000+0 -26896-1 0  9996
2 64745  53.1599 167.7340 0001194  67.2469 132.2342 15.54690431  4590
STARLINK-34592          
1 64746U 25144Y   25204.58336806 -.01631886  00000+0 -26901-1 0  9998
2 64746  53.1596 167.7300 0001296  72.2534 129.1481 15.54688569  4594
STARLINK-34589          
1 64747U 25144Z   25204.58336806 -.01631400  00000+0 -26892-1 0  9990
2 64747  53.1597 167.7258 0001292  72.4890 130.8285 15.54688702  4591
STARLINK-34536          
1 64748U 25144AA  25204.58336806 -.01632311  00000+0 -26908-1 0  9991
2 64748  53.1597 167.7217 0001348  75.1024 130.1327 15.54688916  4595
STARLINK-34595          
1 64749U 25144AB  25204.58336806 -.01634220  00000+0 -26941-1 0  9990
2 64749  53.1597 167.7143 0001356  75.3719 133.6953 15.54690818  4593
STARLINK-34531          
1 64750U 25144AC  25204.58336806 -.01634835  00000+0 -26952-1 0  9996
2 64750  53.1595 167.7180 0001301  76.4510 130.6991 15.54691571  4591
PROGRESS-MS 31          
1 64751U 25146A   25203.26602081  .00008853  00000+0  16288-3 0  9999
2 64751  51.6339 133.1999 0002173 103.8590 256.2641 15.50004651520455
